#cP2015  7  2  0  0  0.00000000      96 ORBIT IGb08 HLM  IGS
## 1851 345600.00000000   900.00000000 57205 0.0000000000000
+   31   G01G02G03G04G05G06G07G09G10G11G12G13G14G15G16G17G18
+        G19G20G21G22G23G24G25G26G27G28G29G30G31G32  0  0  0
+          0  0  0  0  0  0  0  0  0  0  0  0  0  0  0  0  0
+          0  0  0  0  0  0  0  0  0  0  0  0  0  0  0  0  0
+          0  0  0  0  0  0  0  0  0  0  0  0  0  0  0  0  0
++         2  2  2  2  2  2  2  3  2  2  2  2  2  2  3  2  2
++         2  2  2  2  2  2  2  2  2  2  2  2  2  2  0  0  0
++         0  0  0  0  0  0  0  0  0  0  0  0  0  0  0  0  0
++         0  0  0  0  0  0  0  0  0  0  0  0  0  0  0  0  0
++         0  0  0  0  0  0  0  0  0  0  0  0  0  0  0  0  0
%c G  cc GPS ccc cccc cccc cccc cccc ccccc ccccc ccccc ccccc
%c cc cc ccc ccc cccc cccc cccc cccc ccccc ccccc ccccc ccccc
%f  1.2500000  1.025000000  0.00000000000  0.000000000000000
%f  0.0000000  0.000000000  0.00000000000  0.000000000000000
%i    0    0    0    0      0      0      0      0         0
%i    0    0    0    0      0      0      0      0         0
/* FINAL ORBIT COMBINATION FROM WEIGHTED AVERAGE OF:        
/* cod emr esa gfz grg jpl mit ngs sio                      
/* REFERENCED TO IGS TIME (IGST) AND TO WEIGHTED MEAN POLE: 
/* PCV:IGS08_1850 OL/AL:FES2004  NONE     Y  ORB:CMB CLK:CMB
*  2015  7  2  1 30  0.00000000
PG01  16575.319959  13349.178979 -16067.833982     -3.496163  7  5  7  98       
PG02   6652.875151 -14946.356624  21230.606332    575.618234  6  5  6  92       
PG03  13790.343761  21949.973284   5719.306175      1.273656  5  7  5  83       
PG04   7026.284117  15795.143978 -20556.679007    -22.788973  8  8  4 105       
PG05   -148.649720 -23194.621006  12716.220691   -222.828531  6  6  4  66       
PG06  20522.568698  -8008.334847  14835.195119      7.170406  6  7  4 108       
PG07  25692.278782   6441.131628   3973.656959    472.053737  6  6  6  98       
PG09  15890.149317   3399.526857  21008.596206     -3.680429  4  7  7 105       
PG10  13512.895831  -7635.680617  21140.661528   -180.994859  7  4  5  98       
PG11  11718.420100  13784.891415 -20012.459158   -588.704663  7  7  7 110       
PG12 -11126.170405 -24045.636277   3023.912133    306.304106  8  7  8  85       
PG13  10634.508142 -21989.581209 -10716.238872   -128.440422  7  7  6 102       
PG14 -20644.847726  12765.257609 -10347.974704     51.955934  8  8  7  98       
PG15  -1865.314553 -20069.246184 -17225.700418   -258.138818  6  6  6 109       
PG16  -1215.779011  22728.073493  13286.139976   -113.013536  7  6  6 108       
PG17  20092.536302 -13864.448157  -9913.387477   -178.363136  7  9  7 117       
PG18 -17974.041572  -6857.251713 -17925.615152    413.873629  9  9  7 122       
PG19  -2411.546667  20121.372120 -17117.166995   -514.844614  9  7  8  77       
PG20 -13537.620795 -22714.299237  -2046.934258    334.771121  7  8  8  93       
PG21 -26299.892278  -4532.764358   2530.306276   -460.186124 10  8  9 100       
PG22 -14243.479448   7139.216504 -21009.563529    366.780546  8  7  6 115       
PG23   8258.637245  14102.089768  21016.894813   -118.395170  6  6  6  78       
PG24 -13982.253267 -14089.994144 -17754.066966     -0.596386  6  5  7 110       
PG25 -16726.365781 -15322.547155  13848.578079     -8.184114  6  7  5 117       
PG26  -8147.509090  15849.910246  19680.939054     -3.630826  7  6  6 122       
PG27 -10869.820163  23049.399712  -7287.427984      1.232999  7  4  7 132       
PG28  14546.577288  -1385.703498 -21570.003549    450.709751  7  8  8 102       
PG29 -14154.094078  -6019.388896  21666.911460    619.993996  7  6  7 108       
PG30  25597.681926   -242.307655  -7236.269582    -22.300976  8  5  5 105       
PG31 -18660.344204   8838.547242  17021.183292    311.161142  8  6  6  96       
PG32   3879.484172  25812.955298  -6300.185076   -110.854024  7  5  6 101       
*  2015  7  2  1 45  0.00000000
PG01  14645.898623  13317.632744 -17856.872994     -3.495748  7  5  7 107       
PG02   8969.278807 -14725.744100  20466.558052    575.620316  6  5  6  93       
PG03  13765.478938  22506.557148   2922.857139      1.278717  5  7  5  87       
PG04   4699.563014  15700.073843 -21268.309330    -22.791390  8  8  4  99       
PG05    757.330618 -21857.491702  14887.439296   -222.824510  5  6  4  74       
PG06  22071.396085  -7683.624419  12617.114325      7.178031  6  7  5 106       
PG07  25081.309315   6566.799523   6739.399711    472.055631  5  6  6  87       
PG09  14545.661598   5432.231517  21546.450469     -3.683466  3  7  6 105       
PG10  14578.751158  -5361.319875  21169.496061   -180.994747  7  4  4  92       
PG11   9571.882936  14459.303567 -20674.513840   -588.706862  7  7  6 106       
PG12 -11054.317584 -24281.334462    132.282881    306.307362  8  6  8  76       
PG13  11469.692287 -22660.363241  -8118.314369   -128.443355  7  7  6 110       
PG14 -19952.042785  11572.226912 -12781.665217     51.953399  8  8  7  82       
PG15   -675.855487 -21532.564774 -15414.431869   -258.140827  7  6  6 100       
PG16  -1966.712807  21229.498890  15510.465805   -113.010288  8  7  6 110       
PG17  19455.094281 -12687.463944 -12397.296782   -178.364381  7  9  7 110       
PG18 -18702.303972  -8785.282097 -16339.373604    413.876607  9  9  7 123       
PG19  -3727.584656  21402.010946 -15153.945063   -514.845533  8  6  8  74       
PG20 -13251.975906 -22943.584153    741.062402    334.774329  7  7  7  90       
PG21 -25913.951617  -4799.601469   5266.614386   -460.189080 10  8  9 101       
PG22 -15325.666970   4927.886967 -20900.041993    366.784200  8  7  6 109       
PG23   6828.472466  15953.159255  20143.546121   -118.397157  6  6  6  85       
PG24 -11871.489667 -14081.346180 -19226.125722     -0.596501  6  5  6 100       
PG25 -17199.135055 -16709.744418  11496.115509     -8.188006  6  6  5 113       
PG26  -9221.714031  13797.698185  20724.764850     -3.634388  7  6  6 120       
PG27 -11446.865323  23470.184593  -4517.574286      1.235469  6  5  7 125       
PG28  15430.088609   1018.268376 -20992.594494    450.711977  7  8  8  95       
PG29 -12640.626911  -7995.553463  21965.965837    619.995988  7  6  6 111       
PG30  26218.703493    114.060199  -4500.795009    -22.294324  8  5  5 107       
PG31 -20432.365394   8502.989752  15056.364126    311.160313  8  6  6 106       
PG32   3357.862346  25093.153147  -8916.559218   -110.845417  7  5  6 107       
*  2015  7  2  2  0  0.00000000
PG01  12532.129392  13382.202101 -19342.033515     -3.495186  7  5  6  97       
PG02  11194.670254 -14618.964085  19358.210746    575.622265  6  5  5  89       
PG03  13616.914715  22782.795200     76.009643      1.283794  5  7  5 100       
PG04   2309.803561  15720.691267 -21625.663246    -22.793370  8  8  4 103       
PG05   1839.410227 -20364.014612  16799.448571   -222.820977  6  7  4  77       
PG06  23371.714154  -7446.810762  10181.857941      7.185631  7  7  5  98       
PG07  24174.640181   6710.160468   9392.079072    472.057743  4  6  5  76       
PG09  13286.926516   7565.790489  21713.476307     -3.686511  3  6  6 109       
PG10  15741.503998  -3160.867697  20821.343336   -180.996045  7  4  4  86       
PG11   7405.003052  15241.829184 -20997.267646   -588.709136  7  6  6 105       
PG12 -10853.945826 -24226.527235  -2761.603822    306.310244  8  5  7  66       
PG13  12083.387950 -23137.891763  -5382.292716   -128.446485  8  7  5 109       
PG14 -19167.122672  10128.133182 -14990.586167     51.950908  7  8  7  82       
PG15    339.039266 -22859.417226 -13335.797209   -258.142773  8  7  6  98       
PG16  -2899.762074  19558.988978  17461.937980   -113.006411  8  7  7 106       
PG17  18728.957049 -11251.019788 -14662.157593   -178.365549  6  9  7 112       
PG18 -19420.232831 -10500.964530 -14464.913971    413.879375  8  9  7 119       
PG19  -4834.453014  22562.145823 -12927.810138   -514.846424  8  6  7  76       
PG20 -12807.216734 -22921.765173   3516.212066    334.776976  7  7  7  97       
PG21 -25244.175156  -5076.672316   7915.479415   -460.192331 10  8  9 102       
PG22 -16489.641701   2798.735359 -20423.547594    366.787588  8  7  6 113       
PG23   5551.936603  17776.723736  18924.656459   -118.399458  6  7  6  62       
PG24  -9614.628341 -14179.474132 -20369.726196     -0.597250  7  5  6 121       
PG25 -17614.997995 -17823.562186   8946.517879     -8.191935  6  6  5 114       
PG26 -10448.109253  11718.084387  21411.594384     -3.638038  7  6  5 116       
PG27 -11835.211858  23648.212797  -1669.444198      1.237947  6  5  6 126       
PG28  16406.064225   3285.892641 -20033.411210    450.714379  7  9  8  93       
PG29 -11229.748201 -10060.797045  21887.684897    619.998091  6  6  6 112       
PG30  26545.504412    406.665056  -1688.224572    -22.287705  8  5  5  98       
PG31 -21985.074161   8279.378965  12838.378734    311.158842  9  6  6 102       
PG32   2684.727278  24140.831690 -11384.214841   -110.836648  7  6  5 103       
EOF
